{
  "norad_id": 27663,
  "name": "NAVSTAR 51 (USA 166)",
  "history": [
    {
      "epoch": "2026-03-28T01:59:04.025472",
      "apogee_km": 20576.600087308627,
      "perigee_km": 19787.596950146908,
      "latitude_deg": 24.975952404988632,
      "longitude_deg": -165.7621939200908,
      "semi_major_axis_km": 26560.235518727768,
      "eccentricity": 0.01485309,
      "inclination_deg": 54.901,
      "raan_deg": 218.1895,
      "arg_perigee_deg": 52.8576,
      "mean_anomaly_deg": 125.4188,
      "mean_motion_rev_day": 2.00564876
    },
    {
      "epoch": "2026-03-29T01:56:38.812128",
      "apogee_km": 20576.577018131327,
      "perigee_km": 19787.626375828495,
      "latitude_deg": -36.91479444618578,
      "longitude_deg": -69.92354207998142,
      "semi_major_axis_km": 26560.23869697991,
      "eccentricity": 0.0148521,
      "inclination_deg": 54.9007,
      "raan_deg": 218.1499,
      "arg_perigee_deg": 52.8613,
      "mean_anomaly_deg": 126.2596,
      "mean_motion_rev_day": 2.0056484
    }
  ]
}